{"type": "FeatureCollection", "features": [ {"type": "Feature", "properties": {"norad_id": 34732, "name": "COSMOS 2251 DEB", "group": "cosmos-2251-debris", "lat": -12.439546350948374, "lon": -63.827830631672505, "alt_km": 729.932159089245, "timestamp": "2025-12-02T08:59:33.109813+00:00", "meta": {"OBJECT_NAME": "COSMOS 2251 DEB", "OBJECT_ID": "1993-036ZA", "EPOCH": "2025-12-02T02:01:16.053312", "MEAN_MOTION": 14.47279623, "ECCENTRICITY": 0.0040487, "INCLINATION": 74.044, "RA_OF_ASC_NODE": 113.0964, "ARG_OF_PERICENTER": 266.0706, "MEAN_ANOMALY": 214.3828, "EPHEMERIS_TYPE": 0, "CLASSIFICATION_TYPE": "U", "NORAD_CAT_ID": 34732, "ELEMENT_SET_NO": 999, "REV_AT_EPOCH": 87989, "BSTAR": 0.00018438, "MEAN_MOTION_DOT": 6.53e-06, "MEAN_MOTION_DDOT": 0}, "tle": {"line1": "1 34732U 93036ZA  25336.08421358  .00000653  00000+0  18438-3 0  9990", "line2": "2 34732  74.0440 113.0964 0040487 266.0706 214.3828 14.47279623879898"}}, "geometry": {"type": "Point", "coordinates": [-63.827830631672505, -12.439546350948374]}}, {"type": "Feature", "properties": {"norad_id": 34736, "name": "COSMOS 2251 DEB", "group": "cosmos-2251-debris", "lat": 0.7551539968000918, "lon": 58.98576493021344, "alt_km": 444.45586514829847, "timestamp": "2025-12-02T08:59:33.109823+00:00", "meta": {"OBJECT_NAME": "COSMOS 2251 DEB", "OBJECT_ID": "1993-036ZE", "EPOCH": "2025-12-01T23:37:20.864064", "MEAN_MOTION": 15.37938032, "ECCENTRICITY": 0.0014411, "INCLINATION": 74.0055, "RA_OF_ASC_NODE": 59.6115, "ARG_OF_PERICENTER": 356.0368, "MEAN_ANOMALY": 4.0722, "EPHEMERIS_TYPE": 0, "CLASSIFICATION_TYPE": "U", "NORAD_CAT_ID": 34736, "ELEMENT_SET_NO": 999, "REV_AT_EPOCH": 88282, "BSTAR": 0.0069279, "MEAN_MOTION_DOT": 0.00268629, "MEAN_MOTION_DDOT": 0}, "tle": {"line1": "1 34736U 93036ZE  25335.98426926  .00268629  00000+0  69279-2 0  9995", "line2": "2 34736  74.0055  59.6115 0014411 356.0368   4.0722 15.37938032882829"}}, "geometry": {"type": "Point", "coordinates": [58.98576493021344, 0.7551539968000918]}}, {"type": "Feature", "properties": {"norad_id": 34738, "name": "COSMOS 2251 DEB", "group": "cosmos-2251-debris", "lat": -72.4462177405361, "lon": 47.62620848405446, "alt_km": 722.4014686336714, "timestamp": "2025-12-02T08:59:33.109833+00:00", "meta": {"OBJECT_NAME": "COSMOS 2251 DEB", "OBJECT_ID": "1993-036ZG", "EPOCH": "2025-12-01T22:08:11.154912", "MEAN_MOTION": 14.46261211, "ECCENTRICITY": 0.0047096, "INCLINATION": 74.0141, "RA_OF_ASC_NODE": 163.483, "ARG_OF_PERICENTER": 311.808, "MEAN_ANOMALY": 117.0915, "EPHEMERIS_TYPE": 0, "CLASSIFICATION_TYPE": "U", "NORAD_CAT_ID": 34738, "ELEMENT_SET_NO": 999, "REV_AT_EPOCH": 87702, "BSTAR": 0.00032886, "MEAN_MOTION_DOT": 1.166e-05, "MEAN_MOTION_DDOT": 0}, "tle": {"line1": "1 34738U 93036ZG  25335.92235133  .00001166  00000+0  32886-3 0  9995", "line2": "2 34738  74.0141 163.4830 0047096 311.8080 117.0915 14.46261211877022"}}, "geometry": {"type": "Point", "coordinates": [47.62620848405446, -72.4462177405361]}}, {"type": "Feature", "properties": {"norad_id": 34750, "name": "COSMOS 2251 DEB", "group": "cosmos-2251-debris", "lat": -41.67088249668229, "lon": 56.16940324741569, "alt_km": 676.2154840660869, "timestamp": "2025-12-02T08:59:33.109843+00:00", "meta": {"OBJECT_NAME": "COSMOS 2251 DEB", "OBJECT_ID": "1993-036ZU", "EPOCH": "2025-12-02T03:36:29.141856", "MEAN_MOTION": 14.61150871, "ECCENTRICITY": 0.0039342, "INCLINATION": 74.1086, "RA_OF_ASC_NODE": 221.9078, "ARG_OF_PERICENTER": 178.4434, "MEAN_ANOMALY": 305.2442, "EPHEMERIS_TYPE": 0, "CLASSIFICATION_TYPE": "U", "NORAD_CAT_ID": 34750, "ELEMENT_SET_NO": 999, "REV_AT_EPOCH": 88076, "BSTAR": 0.0011877, "MEAN_MOTION_DOT": 5.884e-05, "MEAN_MOTION_DDOT": 0}, "tle": {"line1": "1 34750U 93036ZU  25336.15033729  .00005884  00000+0  11877-2 0  9999", "line2": "2 34750  74.1086 221.9078 0039342 178.4434 305.2442 14.61150871880761"}}, "geometry": {"type": "Point", "coordinates": [56.16940324741569, -41.67088249668229]}}, {"type": "Feature", "properties": {"norad_id": 34752, "name": "COSMOS 2251 DEB", "group": "cosmos-2251-debris", "lat": 8.041536864266067, "lon": 24.0155072422363, "alt_km": 597.5195073179384, "timestamp": "2025-12-02T08:59:33.109854+00:00", "meta": {"OBJECT_NAME": "COSMOS 2251 DEB", "OBJECT_ID": "1993-036ZW", "EPOCH": "2025-12-02T04:09:05.325120", "MEAN_MOTION": 14.99536522, "ECCENTRICITY": 0.0048536, "INCLINATION": 74.0146, "RA_OF_ASC_NODE": 22.1044, "ARG_OF_PERICENTER": 154.1324, "MEAN_ANOMALY": 206.2305, "EPHEMERIS_TYPE": 0, "CLASSIFICATION_TYPE": "U", "NORAD_CAT_ID": 34752, "ELEMENT_SET_NO": 999, "REV_AT_EPOCH": 89691, "BSTAR": 0.0010656, "MEAN_MOTION_DOT": 0.00013407, "MEAN_MOTION_DDOT": 0}, "tle": {"line1": "1 34752U 93036ZW  25336.17297830  .00013407  00000+0  10656-2 0  9992", "line2": "2 34752  74.0146  22.1044 0048536 154.1324 206.2305 14.99536522896911"}}, "geometry": {"type": "Point", "coordinates": [24.0155072422363, 8.041536864266067]}}, {"type": "Feature", "properties": {"norad_id": 34754, "name": "COSMOS 2251 DEB", "group": "cosmos-2251-debris", "lat": 30.9655983611425, "lon": -103.33232324429594, "alt_km": 736.4834513216392, "timestamp": "2025-12-02T08:59:33.109864+00:00", "meta": {"OBJECT_NAME": "COSMOS 2251 DEB", "OBJECT_ID": "1993-036ZY", "EPOCH": "2025-12-02T04:32:18.436992", "MEAN_MOTION": 14.40455255, "ECCENTRICITY": 0.0029117, "INCLINATION": 74.0309, "RA_OF_ASC_NODE": 247.1171, "ARG_OF_PERICENTER": 5.4462, "MEAN_ANOMALY": 144.8545, "EPHEMERIS_TYPE": 0, "CLASSIFICATION_TYPE": "U", "NORAD_CAT_ID": 34754, "ELEMENT_SET_NO": 999, "REV_AT_EPOCH": 87981, "BSTAR": 0.00026435, "MEAN_MOTION_DOT": 8.18e-06, "MEAN_MOTION_DDOT": 0}, "tle": {"line1": "1 34754U 93036ZY  25336.18910228  .00000818  00000+0  26435-3 0  9993", "line2": "2 34754  74.0309 247.1171 0029117   5.4462 144.8545 14.40455255879811"}}, "geometry": {"type": "Point", "coordinates": [-103.33232324429594, 30.9655983611425]}}, {"type": "Feature", "properties": {"norad_id": 34755, "name": "COSMOS 2251 DEB", "group": "cosmos-2251-debris", "lat": -63.68889745280206, "lon": 162.35706466785376, "alt_km": 1009.7030902206952, "timestamp": "2025-12-02T08:59:33.109874+00:00", "meta": {"OBJECT_NAME": "COSMOS 2251 DEB", "OBJECT_ID": "1993-036ZZ", "EPOCH": "2025-11-28T15:26:25.154880", "MEAN_MOTION": 13.50483978, "ECCENTRICITY": 0.04082229, "INCLINATION": 73.9254, "RA_OF_ASC_NODE": 312.682, "ARG_OF_PERICENTER": 334.9897, "MEAN_ANOMALY": 144.2013, "EPHEMERIS_TYPE": 0, "CLASSIFICATION_TYPE": "U", "NORAD_CAT_ID": 34755, "ELEMENT_SET_NO": 999, "REV_AT_EPOCH": 82333, "BSTAR": 0.001766679, "MEAN_MOTION_DOT": 1.881e-05, "MEAN_MOTION_DDOT": 0}, "tle": {"line1": "1 34755U 93036ZZ  25332.64334670  .00001881  00000+0  17667-2 0  9999", "line2": "2 34755  73.9254 312.6820 0408222 334.9897 144.2013 13.50483978823331"}}, "geometry": {"type": "Point", "coordinates": [162.35706466785376, -63.68889745280206]}}, {"type": "Feature", "properties": {"norad_id": 34756, "name": "COSMOS 2251 DEB", "group": "cosmos-2251-debris", "lat": -67.11604737506086, "lon": -15.766078875722371, "alt_km": 1078.9128189279627, "timestamp": "2025-12-02T08:59:33.109884+00:00", "meta": {"OBJECT_NAME": "COSMOS 2251 DEB", "OBJECT_ID": "1993-036AAA", "EPOCH": "2025-12-01T03:38:30.893280", "MEAN_MOTION": 13.67205492, "ECCENTRICITY": 0.03444877, "INCLINATION": 74.0017, "RA_OF_ASC_NODE": 123.425, "ARG_OF_PERICENTER": 1.7567, "MEAN_ANOMALY": 358.4668, "EPHEMERIS_TYPE": 0, "CLASSIFICATION_TYPE": "U", "NORAD_CAT_ID": 34756, "ELEMENT_SET_NO": 999, "REV_AT_EPOCH": 83263, "BSTAR": 0.00091538407, "MEAN_MOTION_DOT": 1.135e-05, "MEAN_MOTION_DDOT": 0}, "tle": {"line1": "1 34756U 93036AAA 25335.15174645  .00001135  00000+0  91538-3 0  9995", "line2": "2 34756  74.0017 123.4250 0344487   1.7567 358.4668 13.67205492832630"}}, "geometry": {"type": "Point", "coordinates": [-15.766078875722371, -67.11604737506086]}}, {"type": "Feature", "properties": {"norad_id": 34758, "name": "COSMOS 2251 DEB", "group": "cosmos-2251-debris", "lat": -11.855464462310417, "lon": -47.251198128954044, "alt_km": 1058.8754683846355, "timestamp": "2025-12-02T08:59:33.109894+00:00", "meta": {"OBJECT_NAME": "COSMOS 2251 DEB", "OBJECT_ID": "1993-036AAC", "EPOCH": "2025-12-02T00:12:47.542176", "MEAN_MOTION": 13.58024696, "ECCENTRICITY": 0.0380633, "INCLINATION": 74.1072, "RA_OF_ASC_NODE": 316.7659, "ARG_OF_PERICENTER": 83.0738, "MEAN_ANOMALY": 281.3506, "EPHEMERIS_TYPE": 0, "CLASSIFICATION_TYPE": "U", "NORAD_CAT_ID": 34758, "ELEMENT_SET_NO": 999, "REV_AT_EPOCH": 82764, "BSTAR": 0.0010789, "MEAN_MOTION_DOT": 1.233e-05, "MEAN_MOTION_DDOT": 0}, "tle": {"line1": "1 34758U 93036AAC 25336.00888359  .00001233  00000+0  10789-2 0  9993", "line2": "2 34758  74.1072 316.7659 0380633  83.0738 281.3506 13.58024696827645"}}, "geometry": {"type": "Point", "coordinates": [-47.251198128954044, -11.855464462310417]}}, {"type": "Feature", "properties": {"norad_id": 34760, "name": "COSMOS 2251 DEB", "group": "cosmos-2251-debris", "lat": 64.1521912984991, "lon": 104.71181533638038, "alt_km": 825.9445905202901, "timestamp": "2025-12-02T08:59:33.109905+00:00", "meta": {"OBJECT_NAME": "COSMOS 2251 DEB", "OBJECT_ID": "1993-036AAE", "EPOCH": "2025-12-01T05:29:20.078304", "MEAN_MOTION": 14.1951855, "ECCENTRICITY": 0.0096194, "INCLINATION": 74.0625, "RA_OF_ASC_NODE": 322.9016, "ARG_OF_PERICENTER": 17.7277, "MEAN_ANOMALY": 357.7821, "EPHEMERIS_TYPE": 0, "CLASSIFICATION_TYPE": "U", "NORAD_CAT_ID": 34760, "ELEMENT_SET_NO": 999, "REV_AT_EPOCH": 86525, "BSTAR": 0.00076737, "MEAN_MOTION_DOT": 1.669e-05, "MEAN_MOTION_DDOT": 0}, "tle": {"line1": "1 34760U 93036AAE 25335.22870461  .00001669  00000+0  76737-3 0  9993", "line2": "2 34760  74.0625 322.9016 0096194  17.7277 357.7821 14.19518550865257"}}, "geometry": {"type": "Point", "coordinates": [104.71181533638038, 64.1521912984991]}}]}